ONEWEB-0589             
1 54655U 22166P   25242.90090001  .00000127  00000+0  27599-3 0  9990
2 54655  87.9234 301.9195 0002838  95.8263 264.3195 13.21828024133190
ONEWEB-0590             
1 54656U 22166Q   25242.69734277 -.00000003  00000+0 -39108-4 0  9992
2 54656  87.9230 301.9366 0002064 110.0675 250.0681 13.21824703133153
ONEWEB-0591             
1 54657U 22166R   25242.86146859  .00000057  00000+0  10695-3 0  9991
2 54657  87.9228 301.9276 0002087  96.4265 263.7107 13.21828586133201
ONEWEB-0592             
1 54658U 22166S   25242.86462765  .00000103  00000+0  21790-3 0  9999
2 54658  87.9236 301.8808 0002060  98.0335 262.1033 13.21827974133085
ONEWEB-0593             
1 54659U 22166T   25242.88827471  .00000049  00000+0  86474-4 0  9991
2 54659  87.9232 301.9126 0002146  95.7203 264.4176 13.21828454133198
ONEWEB-0594             
1 54660U 22166U   25242.68012164  .00000016  00000+0  63647-5 0  9998
2 54660  87.9236 301.9699 0001891  94.4179 265.7171 13.21827488133187
ONEWEB-0595             
1 54661U 22166V   25242.88511132 -.00000030  00000+0 -10429-3 0  9996
2 54661  87.9231 301.9045 0001784  99.9327 260.2008 13.21828517133187
ONEWEB-0596             
1 54662U 22166W   25242.85831063  .00000051  00000+0  92441-4 0  9998
2 54662  87.9232 301.9250 0001925  98.1632 261.9720 13.21827956133189
